{"type": "FeatureCollection", "features": [ {"type": "Feature", "properties": {"norad_id": 31325, "name": "FENGYUN 1C DEB", "group": "fengyun-1c-debris", "lat": -39.17231095094537, "lon": -92.37724688564838, "alt_km": 801.1216811685308, "timestamp": "2025-12-26T17:24:55.001221+00:00", "meta": {"OBJECT_NAME": "FENGYUN 1C DEB", "OBJECT_ID": "1999-025BQD", "EPOCH": "2025-12-23T23:59:08.872800", "MEAN_MOTION": 14.16974364, "ECCENTRICITY": 0.00722678, "INCLINATION": 98.9921, "RA_OF_ASC_NODE": 92.2798, "ARG_OF_PERICENTER": 188.6721, "MEAN_ANOMALY": 171.3209, "EPHEMERIS_TYPE": 0, "CLASSIFICATION_TYPE": "U", "NORAD_CAT_ID": 31325, "ELEMENT_SET_NO": 999, "REV_AT_EPOCH": 59937, "BSTAR": 0.0020925352, "MEAN_MOTION_DOT": 4.268e-05, "MEAN_MOTION_DDOT": 0}, "tle": {"line1": "1 31325U 99025BQD 25357.99940825  .00004268  00000+0  20925-2 0  9996", "line2": "2 31325  98.9921  92.2798 0072267 188.6721 171.3209 14.16974364599379"}}, "geometry": {"type": "Point", "coordinates": [-92.37724688564838, -39.17231095094537]}}, {"type": "Feature", "properties": {"norad_id": 31326, "name": "FENGYUN 1C DEB", "group": "fengyun-1c-debris", "lat": 66.63385387627373, "lon": -136.66618271951893, "alt_km": 558.060942129704, "timestamp": "2025-12-26T17:24:55.001231+00:00", "meta": {"OBJECT_NAME": "FENGYUN 1C DEB", "OBJECT_ID": "1999-025BQE", "EPOCH": "2025-12-15T15:32:28.923936", "MEAN_MOTION": 15.00424804, "ECCENTRICITY": 0.00131933, "INCLINATION": 98.9962, "RA_OF_ASC_NODE": 232.0333, "ARG_OF_PERICENTER": 356.0949, "MEAN_ANOMALY": 4.0165, "EPHEMERIS_TYPE": 0, "CLASSIFICATION_TYPE": "U", "NORAD_CAT_ID": 31326, "ELEMENT_SET_NO": 999, "REV_AT_EPOCH": 73789, "BSTAR": 0.0045407433, "MEAN_MOTION_DOT": 0.00057569, "MEAN_MOTION_DDOT": 0}, "tle": {"line1": "1 31326U 99025BQE 25349.64755699  .00057569  00000+0  45407-2 0  9997", "line2": "2 31326  98.9962 232.0333 0013193 356.0949   4.0165 15.00424804737897"}}, "geometry": {"type": "Point", "coordinates": [-136.66618271951893, 66.63385387627373]}}, {"type": "Feature", "properties": {"norad_id": 31327, "name": "FENGYUN 1C DEB", "group": "fengyun-1c-debris", "lat": 39.96593068280549, "lon": -3.0838989067870375, "alt_km": 514.4996163501701, "timestamp": "2025-12-26T17:24:55.001241+00:00", "meta": {"OBJECT_NAME": "FENGYUN 1C DEB", "OBJECT_ID": "1999-025BQF", "EPOCH": "2025-12-26T06:07:03.029952", "MEAN_MOTION": 15.11611224, "ECCENTRICITY": 0.00841836, "INCLINATION": 98.9827, "RA_OF_ASC_NODE": 3.9817, "ARG_OF_PERICENTER": 325.2884, "MEAN_ANOMALY": 34.2865, "EPHEMERIS_TYPE": 0, "CLASSIFICATION_TYPE": "U", "NORAD_CAT_ID": 31327, "ELEMENT_SET_NO": 999, "REV_AT_EPOCH": 303, "BSTAR": 0.0013919084, "MEAN_MOTION_DOT": 0.0002574, "MEAN_MOTION_DDOT": 0}, "tle": {"line1": "1 31327U 99025BQF 25360.25489618  .00025740  00000+0  13919-2 0  9992", "line2": "2 31327  98.9827   3.9817 0084183 325.2884  34.2865 15.11611224  3033"}}, "geometry": {"type": "Point", "coordinates": [-3.0838989067870375, 39.96593068280549]}}, {"type": "Feature", "properties": {"norad_id": 31328, "name": "FENGYUN 1C DEB", "group": "fengyun-1c-debris", "lat": 25.004697302390447, "lon": -29.875324340058597, "alt_km": 858.9231664997988, "timestamp": "2025-12-26T17:24:55.001251+00:00", "meta": {"OBJECT_NAME": "FENGYUN 1C DEB", "OBJECT_ID": "1999-025BQG", "EPOCH": "2025-12-25T21:07:42.460320", "MEAN_MOTION": 14.28949812, "ECCENTRICITY": 0.010434, "INCLINATION": 98.485, "RA_OF_ASC_NODE": 333.2945, "ARG_OF_PERICENTER": 177.6209, "MEAN_ANOMALY": 182.5491, "EPHEMERIS_TYPE": 0, "CLASSIFICATION_TYPE": "U", "NORAD_CAT_ID": 31328, "ELEMENT_SET_NO": 999, "REV_AT_EPOCH": 97650, "BSTAR": 6.9139e-05, "MEAN_MOTION_DOT": 1.43e-06, "MEAN_MOTION_DDOT": 0}, "tle": {"line1": "1 31328U 99025BQG 25359.88035255  .00000143  00000+0  69139-4 0  9991", "line2": "2 31328  98.4850 333.2945 0104340 177.6209 182.5491 14.28949812976501"}}, "geometry": {"type": "Point", "coordinates": [-29.875324340058597, 25.004697302390447]}}, {"type": "Feature", "properties": {"norad_id": 31330, "name": "FENGYUN 1C DEB", "group": "fengyun-1c-debris", "lat": 42.43987244604542, "lon": 159.2291886902787, "alt_km": 516.8331763760416, "timestamp": "2025-12-26T17:24:55.001262+00:00", "meta": {"OBJECT_NAME": "FENGYUN 1C DEB", "OBJECT_ID": "1999-025BQJ", "EPOCH": "2025-12-25T12:52:55.224192", "MEAN_MOTION": 15.14747166, "ECCENTRICITY": 9.19e-05, "INCLINATION": 98.8832, "RA_OF_ASC_NODE": 166.0642, "ARG_OF_PERICENTER": 318.3558, "MEAN_ANOMALY": 84.6417, "EPHEMERIS_TYPE": 0, "CLASSIFICATION_TYPE": "U", "NORAD_CAT_ID": 31330, "ELEMENT_SET_NO": 999, "REV_AT_EPOCH": 97323, "BSTAR": 0.010685, "MEAN_MOTION_DOT": 0.00203581, "MEAN_MOTION_DDOT": 0}, "tle": {"line1": "1 31330U 99025BQJ 25359.53675028  .00203581  00000+0  10685-1 0  9994", "line2": "2 31330  98.8832 166.0642 0000919 318.3558  84.6417 15.14747166973233"}}, "geometry": {"type": "Point", "coordinates": [159.2291886902787, 42.43987244604542]}}, {"type": "Feature", "properties": {"norad_id": 31331, "name": "FENGYUN 1C DEB", "group": "fengyun-1c-debris", "lat": 21.154703094772604, "lon": 22.683725694230255, "alt_km": 911.9310446017262, "timestamp": "2025-12-26T17:24:55.001272+00:00", "meta": {"OBJECT_NAME": "FENGYUN 1C DEB", "OBJECT_ID": "1999-025BQK", "EPOCH": "2025-12-19T07:00:29.877408", "MEAN_MOTION": 14.00628517, "ECCENTRICITY": 0.0053435, "INCLINATION": 98.8725, "RA_OF_ASC_NODE": 18.9328, "ARG_OF_PERICENTER": 164.3513, "MEAN_ANOMALY": 195.9319, "EPHEMERIS_TYPE": 0, "CLASSIFICATION_TYPE": "U", "NORAD_CAT_ID": 31331, "ELEMENT_SET_NO": 999, "REV_AT_EPOCH": 63948, "BSTAR": 0.00038925, "MEAN_MOTION_DOT": 5.44e-06, "MEAN_MOTION_DDOT": 0}, "tle": {"line1": "1 31331U 99025BQK 25353.29201247  .00000544  00000+0  38925-3 0  9993", "line2": "2 31331  98.8725  18.9328 0053435 164.3513 195.9319 14.00628517639487"}}, "geometry": {"type": "Point", "coordinates": [22.683725694230255, 21.154703094772604]}}, {"type": "Feature", "properties": {"norad_id": 31332, "name": "FENGYUN 1C DEB", "group": "fengyun-1c-debris", "lat": 44.77919808853325, "lon": 1.904612778487127, "alt_km": 831.1391520369925, "timestamp": "2025-12-26T17:24:55.001282+00:00", "meta": {"OBJECT_NAME": "FENGYUN 1C DEB", "OBJECT_ID": "1999-025BQL", "EPOCH": "2025-12-26T07:05:48.454080", "MEAN_MOTION": 14.11885439, "ECCENTRICITY": 0.00494578, "INCLINATION": 98.706, "RA_OF_ASC_NODE": 10.233, "ARG_OF_PERICENTER": 346.5438, "MEAN_ANOMALY": 34.4316, "EPHEMERIS_TYPE": 0, "CLASSIFICATION_TYPE": "U", "NORAD_CAT_ID": 31332, "ELEMENT_SET_NO": 999, "REV_AT_EPOCH": 96163, "BSTAR": 0.00086157202, "MEAN_MOTION_DOT": 1.549e-05, "MEAN_MOTION_DDOT": 0}, "tle": {"line1": "1 31332U 99025BQL 25360.29569970  .00001549  00000+0  86157-3 0  9998", "line2": "2 31332  98.7060  10.2330 0049457 346.5438  34.4316 14.11885439961635"}}, "geometry": {"type": "Point", "coordinates": [1.904612778487127, 44.77919808853325]}}, {"type": "Feature", "properties": {"norad_id": 31333, "name": "FENGYUN 1C DEB", "group": "fengyun-1c-debris", "lat": -78.7367091124374, "lon": 62.89222352036562, "alt_km": 783.4399769505044, "timestamp": "2025-12-26T17:24:55.001292+00:00", "meta": {"OBJECT_NAME": "FENGYUN 1C DEB", "OBJECT_ID": "1999-025BQM", "EPOCH": "2025-12-20T18:42:54.770112", "MEAN_MOTION": 14.26566831, "ECCENTRICITY": 0.00982731, "INCLINATION": 98.4277, "RA_OF_ASC_NODE": 9.0567, "ARG_OF_PERICENTER": 2.9268, "MEAN_ANOMALY": 357.2467, "EPHEMERIS_TYPE": 0, "CLASSIFICATION_TYPE": "U", "NORAD_CAT_ID": 31333, "ELEMENT_SET_NO": 999, "REV_AT_EPOCH": 96706, "BSTAR": 0.00048897512, "MEAN_MOTION_DOT": 1.199e-05, "MEAN_MOTION_DDOT": 0}, "tle": {"line1": "1 31333U 99025BQM 25354.77980058  .00001199  00000+0  48898-3 0  9990", "line2": "2 31333  98.4277   9.0567 0098273   2.9268 357.2467 14.26566831967069"}}, "geometry": {"type": "Point", "coordinates": [62.89222352036562, -78.7367091124374]}}, {"type": "Feature", "properties": {"norad_id": 31336, "name": "FENGYUN 1C DEB", "group": "fengyun-1c-debris", "lat": -79.8456796529065, "lon": 111.99572709569081, "alt_km": 833.6085940819594, "timestamp": "2025-12-26T17:24:55.001302+00:00", "meta": {"OBJECT_NAME": "FENGYUN 1C DEB", "OBJECT_ID": "1999-025BQQ", "EPOCH": "2025-12-25T15:47:51.662976", "MEAN_MOTION": 14.38725938, "ECCENTRICITY": 0.0093912, "INCLINATION": 98.4632, "RA_OF_ASC_NODE": 54.7102, "ARG_OF_PERICENTER": 80.4015, "MEAN_ANOMALY": 70.262, "EPHEMERIS_TYPE": 0, "CLASSIFICATION_TYPE": "U", "NORAD_CAT_ID": 31336, "ELEMENT_SET_NO": 999, "REV_AT_EPOCH": 97976, "BSTAR": 0.00029728, "MEAN_MOTION_DOT": 9.16e-06, "MEAN_MOTION_DDOT": 0}, "tle": {"line1": "1 31336U 99025BQQ 25359.65823684  .00000916  00000+0  29728-3 0  9993", "line2": "2 31336  98.4632  54.7102 0093912  80.4015  70.2620 14.38725938979766"}}, "geometry": {"type": "Point", "coordinates": [111.99572709569081, -79.8456796529065]}}, {"type": "Feature", "properties": {"norad_id": 31338, "name": "FENGYUN 1C DEB", "group": "fengyun-1c-debris", "lat": 29.56790958639979, "lon": -164.4465382227898, "alt_km": 780.0519804185788, "timestamp": "2025-12-26T17:24:55.001333+00:00", "meta": {"OBJECT_NAME": "FENGYUN 1C DEB", "OBJECT_ID": "1999-025BQS", "EPOCH": "2025-12-24T19:38:38.429376", "MEAN_MOTION": 14.20844571, "ECCENTRICITY": 0.00720648, "INCLINATION": 98.7165, "RA_OF_ASC_NODE": 198.6657, "ARG_OF_PERICENTER": 73.8557, "MEAN_ANOMALY": 287.0537, "EPHEMERIS_TYPE": 0, "CLASSIFICATION_TYPE": "U", "NORAD_CAT_ID": 31338, "ELEMENT_SET_NO": 999, "REV_AT_EPOCH": 63829, "BSTAR": 0.0023341859, "MEAN_MOTION_DOT": 5.139e-05, "MEAN_MOTION_DDOT": 0}, "tle": {"line1": "1 31338U 99025BQS 25358.81850034  .00005139  00000+0  23342-2 0  9998", "line2": "2 31338  98.7165 198.6657 0072064  73.8557 287.0537 14.20844571638298"}}, "geometry": {"type": "Point", "coordinates": [-164.4465382227898, 29.56790958639979]}}]}